start=new Date('2023-01-20T00:00:00.000Z').valueOf();
sats=[{"DECAY_DATE":null,"RA_OF_ASC_NODE":"233.4806","SEMIMAJOR_AXIS":"6917.902","ELEMENT_SET_NO":"999","EPOCH":"2023-01-19T20:36:19.504512","MEAN_ANOMALY":"287.1007","CLASSIFICATION_TYPE":"U","COUNTRY_CODE":"US","EPHEMERIS_TYPE":"0","RCS_SIZE":"LARGE","BSTAR":"0.00004801500000","MEAN_MOTION_DDOT":"0.0000000000000","OBJECT_NAME":"STARLINK-4003","SITE":"AFETR","PERIAPSIS":"538.732","LAUNCH_DATE":"2022-05-18","OBJECT_ID":"2022-053AX","MEAN_ELEMENT_THEORY":"SGP4","TLE_LINE2":"2 52701  53.2143 233.4806 0001496  73.0149 287.1007 15.08833065 38055","FILE":"3755095","CENTER_NAME":"EARTH","ARG_OF_PERICENTER":"73.0149","TIME_SYSTEM":"UTC","REV_AT_EPOCH":"3805","APOAPSIS":"540.802","MEAN_MOTION_DOT":"0.00000476","MEAN_MOTION":"15.08833065","ECCENTRICITY":"0.00014960","INCLINATION":"53.2143","REF_FRAME":"TEME","OBJECT_TYPE":"PAYLOAD","PERIOD":"95.438","NORAD_CAT_ID":"52701","TLE_LINE1":"1 52701U 22053AX  23019.85855908  .00000476  00000-0  48015-4 0  9999","GP_ID":"223504008"},{"REF_FRAME":"TEME","ECCENTRICITY":"0.00016140","INCLINATION":"53.2115","MEAN_MOTION":"15.08843262","GP_ID":"223498916","NORAD_CAT_ID":"52702","TLE_LINE1":"1 52702U 22053AY  23019.42204381 -.00001676  00000-0 -87213-4 0  9994","PERIOD":"95.437","OBJECT_TYPE":"PAYLOAD","MEAN_MOTION_DOT":"-0.00001676","APOAPSIS":"540.852","REV_AT_EPOCH":"3819","TIME_SYSTEM":"UTC","ARG_OF_PERICENTER":"101.9955","PERIAPSIS":"538.619","LAUNCH_DATE":"2022-05-18","SITE":"AFETR","CENTER_NAME":"EARTH","MEAN_ELEMENT_THEORY":"SGP4","OBJECT_ID":"2022-053AY","FILE":"3754973","TLE_LINE2":"2 52702  53.2115 250.4388 0001614 101.9955 258.1218 15.08843262 38194","EPOCH":"2023-01-19T10:07:44.585184","MEAN_ANOMALY":"258.1218","SEMIMAJOR_AXIS":"6917.870","ELEMENT_SET_NO":"999","DECAY_DATE":null,"RA_OF_ASC_NODE":"250.4388","BSTAR":"-0.00008721300000","MEAN_MOTION_DDOT":"0.0000000000000","OBJECT_NAME":"STARLINK-4033","EPHEMERIS_TYPE":"0","RCS_SIZE":"LARGE","COUNTRY_CODE":"US","CLASSIFICATION_TYPE":"U"},{"RA_OF_ASC_NODE":"233.5265","DECAY_DATE":null,"SEMIMAJOR_AXIS":"6917.897","ELEMENT_SET_NO":"999","MEAN_ANOMALY":"289.8949","EPOCH":"2023-01-19T20:20:25.341792","CLASSIFICATION_TYPE":"U","COUNTRY_CODE":"US","RCS_SIZE":"LARGE","EPHEMERIS_TYPE":"0","OBJECT_NAME":"STARLINK-4020","MEAN_MOTION_DDOT":"0.0000000000000","BSTAR":"-0.00000106730000","SITE":"AFETR","LAUNCH_DATE":"2022-05-18","PERIAPSIS":"538.559","TLE_LINE2":"2 52703  53.2137 233.5265 0001738  70.2230 289.8949 15.08834637 38059","FILE":"3755095","OBJECT_ID":"2022-053AZ","MEAN_ELEMENT_THEORY":"SGP4","CENTER_NAME":"EARTH","ARG_OF_PERICENTER":"70.2230","TIME_SYSTEM":"UTC","APOAPSIS":"540.964","REV_AT_EPOCH":"3805","MEAN_MOTION_DOT":"-0.00000305","MEAN_MOTION":"15.08834637","INCLINATION":"53.2137","ECCENTRICITY":"0.00017380","REF_FRAME":"TEME","OBJECT_TYPE":"PAYLOAD","PERIOD":"95.438","TLE_LINE1":"1 52703U 22053AZ  23019.84751553 -.00000305  00000-0 -10673-5 0  9994","NORAD_CAT_ID":"52703","GP_ID":"223503507"},{"TIME_SYSTEM":"UTC","ARG_OF_PERICENTER":"64.3543","MEAN_MOTION_DOT":"0.00002084","APOAPSIS":"541.137","REV_AT_EPOCH":"3843","MEAN_MOTION":"15.08841833","REF_FRAME":"TEME","INCLINATION":"53.2129","ECCENTRICITY":"0.00020190","PERIOD":"95.437","OBJECT_TYPE":"PAYLOAD","GP_ID":"223498417","TLE_LINE1":"1 52704U 22053BA  23019.53103493  .00002084  00000-0  14902-3 0  9996","NORAD_CAT_ID":"52704","ELEMENT_SET_NO":"999","SEMIMAJOR_AXIS":"6917.875","RA_OF_ASC_NODE":"234.9508","DECAY_DATE":null,"MEAN_ANOMALY":"295.7658","EPOCH":"2023-01-19T12:44:41.417952","COUNTRY_CODE":"US","CLASSIFICATION_TYPE":"U","OBJECT_NAME":"STARLINK-3999","BSTAR":"0.00014902000000","MEAN_MOTION_DDOT":"0.0000000000000","RCS_SIZE":"LARGE","EPHEMERIS_TYPE":"0","LAUNCH_DATE":"2022-05-18","PERIAPSIS":"538.343","SITE":"AFETR","CENTER_NAME":"EARTH","FILE":"3754973","TLE_LINE2":"2 52704  53.2129 234.9508 0002019  64.3543 295.7658 15.08841833 38431","OBJECT_ID":"2022-053BA","MEAN_ELEMENT_THEORY":"SGP4"},{"LAUNCH_DATE":"2022-05-18","PERIAPSIS":"538.413","SITE":"AFETR","CENTER_NAME":"EARTH","TLE_LINE2":"2 52705  53.2125 233.5054 0001941  66.3422 293.7774 15.08836551 38056","FILE":"3755130","MEAN_ELEMENT_THEORY":"SGP4","OBJECT_ID":"2022-053BB","MEAN_ANOMALY":"293.7774","EPOCH":"2023-01-19T20:25:43.376736","SEMIMAJOR_AXIS":"6917.891","ELEMENT_SET_NO":"999","DECAY_DATE":null,"RA_OF_ASC_NODE":"233.5054","OBJECT_NAME":"STARLINK-3844","BSTAR":"0.00006607800000","MEAN_MOTION_DDOT":"0.0000000000000","RCS_SIZE":"LARGE","EPHEMERIS_TYPE":"0","COUNTRY_CODE":"US","CLASSIFICATION_TYPE":"U","REF_FRAME":"TEME","INCLINATION":"53.2125","ECCENTRICITY":"0.00019410","MEAN_MOTION":"15.08836551","GP_ID":"223504020","TLE_LINE1":"1 52705U 22053BB  23019.85119649  .00000764  00000-0  66078-4 0  9997","NORAD_CAT_ID":"52705","PERIOD":"95.438","OBJECT_TYPE":"PAYLOAD","MEAN_MOTION_DOT":"0.00000764","APOAPSIS":"541.099","REV_AT_EPOCH":"3805","TIME_SYSTEM":"UTC","ARG_OF_PERICENTER":"66.3422"},{"COUNTRY_CODE":"US","CLASSIFICATION_TYPE":"U","BSTAR":"0.00047961000000","MEAN_MOTION_DDOT":"0.0000000000000","OBJECT_NAME":"STARLINK-3970","EPHEMERIS_TYPE":"0","RCS_SIZE":"LARGE","ELEMENT_SET_NO":"999","SEMIMAJOR_AXIS":"6917.860","DECAY_DATE":null,"RA_OF_ASC_NODE":"233.4921","EPOCH":"2023-01-19T20:31:00.871680","MEAN_ANOMALY":"283.9029","CENTER_NAME":"EARTH","MEAN_ELEMENT_THEORY":"SGP4","OBJECT_ID":"2022-053BC","FILE":"3755096","TLE_LINE2":"2 52706  53.2124 233.4921 0001573  76.2139 283.9029 15.08846622 38058","PERIAPSIS":"538.637","LAUNCH_DATE":"2022-05-18","SITE":"AFETR","TIME_SYSTEM":"UTC","ARG_OF_PERICENTER":"76.2139","MEAN_MOTION_DOT":"0.00007355","APOAPSIS":"540.813","REV_AT_EPOCH":"3805","PERIOD":"95.437","OBJECT_TYPE":"PAYLOAD","GP_ID":"223503536","NORAD_CAT_ID":"52706","TLE_LINE1":"1 52706U 22053BC  23019.85487120  .00007355  00000-0  47961-3 0  9992","MEAN_MOTION":"15.08846622","REF_FRAME":"TEME","ECCENTRICITY":"0.00015730","INCLINATION":"53.2124"},{"OBJECT_TYPE":"PAYLOAD","PERIOD":"95.437","TLE_LINE1":"1 52707U 22053BD  23019.84478917 -.00000005  00000-0  17791-4 0  9991","NORAD_CAT_ID":"52707","GP_ID":"223503549","MEAN_MOTION":"15.08841406","INCLINATION":"53.2124","ECCENTRICITY":"0.00018200","REF_FRAME":"TEME","ARG_OF_PERICENTER":"54.3498","TIME_SYSTEM":"UTC","APOAPSIS":"541.000","REV_AT_EPOCH":"3805","MEAN_MOTION_DOT":"-0.00000005","TLE_LINE2":"2 52707  53.2124 233.5422 0001820  54.3498 305.7663 15.08841406 38058","FILE":"3755097","OBJECT_ID":"2022-053BD","MEAN_ELEMENT_THEORY":"SGP4","CENTER_NAME":"EARTH","SITE":"AFETR","LAUNCH_DATE":"2022-05-18","PERIAPSIS":"538.482","CLASSIFICATION_TYPE":"U","COUNTRY_CODE":"US","RCS_SIZE":"LARGE","EPHEMERIS_TYPE":"0","OBJECT_NAME":"STARLINK-4007","MEAN_MOTION_DDOT":"0.0000000000000","BSTAR":"0.00001779100000","RA_OF_ASC_NODE":"233.5422","DECAY_DATE":null,"ELEMENT_SET_NO":"999","SEMIMAJOR_AXIS":"6917.876","MEAN_ANOMALY":"305.7663","EPOCH":"2023-01-19T20:16:29.784288"},{"ECCENTRICITY":"0.00016000","INCLINATION":"53.2124","REF_FRAME":"TEME","MEAN_MOTION":"15.08843434","NORAD_CAT_ID":"52708","TLE_LINE1":"1 52708U 22053BE  23019.61294876  .00001014  00000-0  81810-4 0  9990","GP_ID":"223504046","OBJECT_TYPE":"PAYLOAD","PERIOD":"95.437","REV_AT_EPOCH":"3802","APOAPSIS":"540.842","MEAN_MOTION_DOT":"0.00001014","ARG_OF_PERICENTER":"70.7611","TIME_SYSTEM":"UTC","SITE":"AFETR","PERIAPSIS":"538.628","LAUNCH_DATE":"2022-05-18","OBJECT_ID":"2022-053BE","MEAN_ELEMENT_THEORY":"SGP4","TLE_LINE2":"2 52708  53.2124 234.5761 0001600  70.7611 289.3554 15.08843434 38027","FILE":"3755097","CENTER_NAME":"EARTH","MEAN_ANOMALY":"289.3554","EPOCH":"2023-01-19T14:42:38.772864","DECAY_DATE":null,"RA_OF_ASC_NODE":"234.5761","SEMIMAJOR_AXIS":"6917.870","ELEMENT_SET_NO":"999","EPHEMERIS_TYPE":"0","RCS_SIZE":"LARGE","MEAN_MOTION_DDOT":"0.0000000000000","BSTAR":"0.00008181000000","OBJECT_NAME":"STARLINK-3962","CLASSIFICATION_TYPE":"U","COUNTRY_CODE":"US"},{"GP_ID":"223499427","TLE_LINE1":"1 52830U 22062A   23019.40775044  .00001324  00000-0  10127-3 0  9990","NORAD_CAT_ID":"52830","PERIOD":"95.438","OBJECT_TYPE":"PAYLOAD","REF_FRAME":"TEME","INCLINATION":"53.2175","ECCENTRICITY":"0.00020320","MEAN_MOTION":"15.08835126","MEAN_MOTION_DOT":"0.00001324","APOAPSIS":"541.166","REV_AT_EPOCH":"3288","TIME_SYSTEM":"UTC","ARG_OF_PERICENTER":"95.4537","CENTER_NAME":"EARTH","TLE_LINE2":"2 52830  53.2175 135.4831 0002032  95.4537 264.6687 15.08835126 32887","FILE":"3754973","OBJECT_ID":"2022-062A","MEAN_ELEMENT_THEORY":"SGP4","LAUNCH_DATE":"2022-06-17","PERIAPSIS":"538.355","SITE":"AFETR","OBJECT_NAME":"STARLINK-4091","MEAN_MOTION_DDOT":"0.0000000000000","BSTAR":"0.00010127000000","RCS_SIZE":"LARGE","EPHEMERIS_TYPE":"0","COUNTRY_CODE":"US","CLASSIFICATION_TYPE":"U","MEAN_ANOMALY":"264.6687","EPOCH":"2023-01-19T09:47:09.638016","SEMIMAJOR_AXIS":"6917.895","ELEMENT_SET_NO":"999","DECAY_DATE":null,"RA_OF_ASC_NODE":"135.4831"},{"COUNTRY_CODE":"US","CLASSIFICATION_TYPE":"U","MEAN_MOTION_DDOT":"0.0000000000000","BSTAR":"0.00000899500000","OBJECT_NAME":"STARLINK-4089","EPHEMERIS_TYPE":"0","RCS_SIZE":"LARGE","SEMIMAJOR_AXIS":"6917.897","ELEMENT_SET_NO":"999","DECAY_DATE":null,"RA_OF_ASC_NODE":"135.4397","MEAN_ANOMALY":"244.9928","EPOCH":"2023-01-19T10:03:03.527712","CENTER_NAME":"EARTH","MEAN_ELEMENT_THEORY":"SGP4","OBJECT_ID":"2022-062B","FILE":"3754973","TLE_LINE2":"2 52831  53.2153 135.4397 0001406 115.1210 244.9928 15.08834445 32885","PERIAPSIS":"538.790","LAUNCH_DATE":"2022-06-17","SITE":"AFETR","TIME_SYSTEM":"UTC","ARG_OF_PERICENTER":"115.1210","MEAN_MOTION_DOT":"-0.00000145","REV_AT_EPOCH":"3288","APOAPSIS":"540.735","PERIOD":"95.438","OBJECT_TYPE":"PAYLOAD","GP_ID":"223497680","NORAD_CAT_ID":"52831","TLE_LINE1":"1 52831U 22062B   23019.41879083 -.00000145  00000-0  89950-5 0  9993","MEAN_MOTION":"15.08834445","REF_FRAME":"TEME","ECCENTRICITY":"0.00014060","INCLINATION":"53.2153"}];
